FENGYUN 1C DEB          
1 30998U 99025BCQ 17345.90716057  .00000951  00000-0  45429-3 0  9991
2 30998  98.9264 330.0445 0018266  22.7377  35.3309 14.21542322554800
